ORBCOMM FM37 [-]        
1 33064U 08031E   23253.20060927  .00001772  00000+0  29065-3 0  9990
2 33064  48.4415 162.4232 0005735 133.5004 348.2742 14.75015535818867
ORBCOMM FM40 [-]        
1 33065U 08031F   23252.76298951  .00002293  00000+0  35882-3 0  9994
2 33065  48.4429 155.9324 0007184 139.0637 250.8090 14.76024710818933
VESSELSAT 1 [-]         
1 37840U 11058C   23253.03447862  .00000394  00000+0  70781-4 0  9998
2 37840  19.9630  42.7686 0013649 280.9609  78.9260 14.11057345615153
ORBCOMM FM109 [+]       
1 40086U 14040A   23252.73226987  .00001010  00000+0  26557-3 0  9994
2 40086  47.0036 183.6133 0002297 243.3853 116.6796 14.55881027486918
ORBCOMM FM107 [+]       
1 40087U 14040B   23253.10959083  .00001077  00000+0  28065-3 0  9996
2 40087  47.0054 182.7649 0001363 215.7352 144.3441 14.55881722486963
ORBCOMM FM106 [-]       
1 40088U 14040C   23252.75732577  .00001209  00000+0  25149-3 0  9991
2 40088  47.0625  55.2410 0018564 308.5903  51.3323 14.65952954488732
ORBCOMM FM111 [-]       
1 40089U 14040D   23252.65273888  .00001976  00000+0  28402-3 0  9992
2 40089  47.0065 344.7633 0033660 349.2203  10.7966 14.79884253494272
ORBCOMM FM104 [-]       
1 40090U 14040E   23252.28757386  .00000759  00000+0  21535-3 0  9991
2 40090  47.0049 212.8779 0016451 134.0669 226.1573 14.54443943486387
